start=new Date('2021-09-20T00:00:00.000Z').valueOf();
sats=[{"LAUNCH_DATE":"2021-02-16","FILE":"3120378","MEAN_MOTION_DOT":"-0.00021513","REF_FRAME":"TEME","APOAPSIS":"548.543","TIME_SYSTEM":"UTC","EPOCH":"2021-09-20T00:00:02.000160","PERIOD":"95.591","ECCENTRICITY":"0.00019690","MEAN_ELEMENT_THEORY":"SGP4","INCLINATION":"53.0556","MEAN_MOTION":"15.06411006","ELEMENT_SET_NO":"999","CENTER_NAME":"EARTH","ARG_OF_PERICENTER":"58.8340","NORAD_CAT_ID":"47649","OBJECT_TYPE":"PAYLOAD","DECAY_DATE":null,"GP_ID":"185056860","MEAN_MOTION_DDOT":"0.0000000000000","MEAN_ANOMALY":"111.4770","OBJECT_NAME":"STARLINK-2032","SITE":"AFETR","BSTAR":"-0.00142920000000","SEMIMAJOR_AXIS":"6925.315","RA_OF_ASC_NODE":"176.5579","OBJECT_ID":"2021-012AF","PERIAPSIS":"545.816","TLE_LINE2":"2 47649  53.0556 176.5579 0001969  58.8340 111.4770 15.06411006  3579","RCS_SIZE":"LARGE","CLASSIFICATION_TYPE":"U","REV_AT_EPOCH":"357","EPHEMERIS_TYPE":"0","COUNTRY_CODE":"US","TLE_LINE1":"1 47649U 21012AF  21263.00002315 -.00021513  00000-0 -14292-2 0  9995"},{"MEAN_ANOMALY":"182.1214","GP_ID":"185057110","MEAN_MOTION_DDOT":"0.0000000000000","DECAY_DATE":null,"NORAD_CAT_ID":"47650","OBJECT_TYPE":"PAYLOAD","RCS_SIZE":"LARGE","TLE_LINE2":"2 47650  53.0550 176.5608 0002094  68.1973 182.1214 15.06408059  3565","PERIAPSIS":"545.739","OBJECT_ID":"2021-012AG","BSTAR":"-0.00128010000000","SITE":"AFETR","SEMIMAJOR_AXIS":"6925.324","RA_OF_ASC_NODE":"176.5608","OBJECT_NAME":"STARLINK-2033","EPHEMERIS_TYPE":"0","REV_AT_EPOCH":"356","CLASSIFICATION_TYPE":"U","TLE_LINE1":"1 47650U 21012AG  21263.00002315 -.00019302  00000-0 -12801-2 0  9994","COUNTRY_CODE":"US","APOAPSIS":"548.639","REF_FRAME":"TEME","MEAN_MOTION_DOT":"-0.00019302","FILE":"3120378","LAUNCH_DATE":"2021-02-16","PERIOD":"95.592","EPOCH":"2021-09-20T00:00:02.000160","TIME_SYSTEM":"UTC","MEAN_MOTION":"15.06408059","INCLINATION":"53.0550","MEAN_ELEMENT_THEORY":"SGP4","ECCENTRICITY":"0.00020940","CENTER_NAME":"EARTH","ARG_OF_PERICENTER":"68.1973","ELEMENT_SET_NO":"999"},{"TLE_LINE1":"1 47651U 21012AH  21263.00002315 -.00032920  00000-0 -22011-2 0  9990","COUNTRY_CODE":"US","REV_AT_EPOCH":"357","EPHEMERIS_TYPE":"0","CLASSIFICATION_TYPE":"U","SITE":"AFETR","SEMIMAJOR_AXIS":"6925.336","RA_OF_ASC_NODE":"196.5588","BSTAR":"-0.00220110000000","OBJECT_ID":"2021-012AH","PERIAPSIS":"545.923","TLE_LINE2":"2 47651  53.0558 196.5588 0001845  69.5969 355.8754 15.06404243  3576","RCS_SIZE":"LARGE","OBJECT_NAME":"STARLINK-2035","DECAY_DATE":null,"MEAN_MOTION_DDOT":"0.0000000000000","GP_ID":"185057862","MEAN_ANOMALY":"355.8754","OBJECT_TYPE":"PAYLOAD","NORAD_CAT_ID":"47651","CENTER_NAME":"EARTH","ARG_OF_PERICENTER":"69.5969","ELEMENT_SET_NO":"999","MEAN_MOTION":"15.06404243","ECCENTRICITY":"0.00018450","MEAN_ELEMENT_THEORY":"SGP4","INCLINATION":"53.0558","TIME_SYSTEM":"UTC","EPOCH":"2021-09-20T00:00:02.000160","PERIOD":"95.592","MEAN_MOTION_DOT":"-0.00032920","REF_FRAME":"TEME","APOAPSIS":"548.478","LAUNCH_DATE":"2021-02-16","FILE":"3120378"},{"PERIOD":"95.592","EPOCH":"2021-09-20T00:00:02.000160","TIME_SYSTEM":"UTC","APOAPSIS":"548.462","REF_FRAME":"TEME","MEAN_MOTION_DOT":"-0.00025124","FILE":"3120378","LAUNCH_DATE":"2021-02-16","CENTER_NAME":"EARTH","ARG_OF_PERICENTER":"72.4104","ELEMENT_SET_NO":"999","MEAN_MOTION":"15.06407654","INCLINATION":"53.0537","MEAN_ELEMENT_THEORY":"SGP4","ECCENTRICITY":"0.00018360","RCS_SIZE":"LARGE","TLE_LINE2":"2 47652  53.0537 196.5543 0001836  72.4104 207.9751 15.06407654  3594","OBJECT_ID":"2021-012AJ","PERIAPSIS":"545.919","SITE":"AFETR","RA_OF_ASC_NODE":"196.5543","SEMIMAJOR_AXIS":"6925.325","BSTAR":"-0.00167330000000","OBJECT_NAME":"STARLINK-2036","MEAN_ANOMALY":"207.9751","GP_ID":"185056114","MEAN_MOTION_DDOT":"0.0000000000000","DECAY_DATE":null,"NORAD_CAT_ID":"47652","OBJECT_TYPE":"PAYLOAD","TLE_LINE1":"1 47652U 21012AJ  21263.00002315 -.00025124  00000-0 -16733-2 0  9993","COUNTRY_CODE":"US","EPHEMERIS_TYPE":"0","REV_AT_EPOCH":"359","CLASSIFICATION_TYPE":"U"},{"OBJECT_ID":"2021-012AK","PERIAPSIS":"545.834","TLE_LINE2":"2 47653  53.0530 176.5559 0002017  58.4846 251.8941 15.06394324  3590","RCS_SIZE":"LARGE","SITE":"AFETR","BSTAR":"-0.00137430000000","SEMIMAJOR_AXIS":"6925.366","RA_OF_ASC_NODE":"176.5559","OBJECT_NAME":"STARLINK-2037","MEAN_ANOMALY":"251.8941","DECAY_DATE":null,"MEAN_MOTION_DDOT":"0.0000000000000","GP_ID":"185056361","OBJECT_TYPE":"PAYLOAD","NORAD_CAT_ID":"47653","TLE_LINE1":"1 47653U 21012AK  21263.00002315 -.00020690  00000-0 -13743-2 0  9995","COUNTRY_CODE":"US","EPHEMERIS_TYPE":"0","REV_AT_EPOCH":"359","CLASSIFICATION_TYPE":"U","EPOCH":"2021-09-20T00:00:02.000160","PERIOD":"95.593","TIME_SYSTEM":"UTC","APOAPSIS":"548.628","MEAN_MOTION_DOT":"-0.00020690","REF_FRAME":"TEME","FILE":"3120378","LAUNCH_DATE":"2021-02-16","CENTER_NAME":"EARTH","ARG_OF_PERICENTER":"58.4846","ELEMENT_SET_NO":"999","MEAN_MOTION":"15.06394324","MEAN_ELEMENT_THEORY":"SGP4","INCLINATION":"53.0530","ECCENTRICITY":"0.00020170"},{"REF_FRAME":"TEME","MEAN_MOTION_DOT":"-0.00025073","APOAPSIS":"548.380","LAUNCH_DATE":"2021-02-16","FILE":"3120378","TIME_SYSTEM":"UTC","PERIOD":"95.592","EPOCH":"2021-09-20T00:00:02.000160","MEAN_MOTION":"15.06407967","ECCENTRICITY":"0.00017200","INCLINATION":"53.0536","MEAN_ELEMENT_THEORY":"SGP4","CENTER_NAME":"EARTH","ARG_OF_PERICENTER":"64.0447","ELEMENT_SET_NO":"999","MEAN_MOTION_DDOT":"0.0000000000000","GP_ID":"185057610","DECAY_DATE":null,"MEAN_ANOMALY":"196.3244","OBJECT_TYPE":"PAYLOAD","NORAD_CAT_ID":"47654","SEMIMAJOR_AXIS":"6925.324","SITE":"AFETR","RA_OF_ASC_NODE":"196.5459","BSTAR":"-0.00166990000000","RCS_SIZE":"LARGE","TLE_LINE2":"2 47654  53.0536 196.5459 0001720  64.0447 196.3244 15.06407967  3607","OBJECT_ID":"2021-012AL","PERIAPSIS":"545.998","OBJECT_NAME":"STARLINK-2038","REV_AT_EPOCH":"360","EPHEMERIS_TYPE":"0","CLASSIFICATION_TYPE":"U","TLE_LINE1":"1 47654U 21012AL  21263.00002315 -.00025073  00000-0 -16699-2 0  9999","COUNTRY_CODE":"US"},{"LAUNCH_DATE":"2021-02-16","FILE":"3120378","MEAN_MOTION_DOT":"-0.00026305","REF_FRAME":"TEME","APOAPSIS":"548.533","TIME_SYSTEM":"UTC","EPOCH":"2021-09-20T00:00:02.000160","PERIOD":"95.592","ECCENTRICITY":"0.00019100","MEAN_ELEMENT_THEORY":"SGP4","INCLINATION":"53.0533","MEAN_MOTION":"15.06401127","ELEMENT_SET_NO":"999","CENTER_NAME":"EARTH","ARG_OF_PERICENTER":"76.3148","NORAD_CAT_ID":"47655","OBJECT_TYPE":"PAYLOAD","DECAY_DATE":null,"GP_ID":"185057363","MEAN_MOTION_DDOT":"0.0000000000000","MEAN_ANOMALY":"224.0553","OBJECT_NAME":"STARLINK-2039","SITE":"AFETR","SEMIMAJOR_AXIS":"6925.345","RA_OF_ASC_NODE":"196.5534","BSTAR":"-0.00175350000000","PERIAPSIS":"545.887","OBJECT_ID":"2021-012AM","TLE_LINE2":"2 47655  53.0533 196.5534 0001910  76.3148 224.0553 15.06401127  3596","RCS_SIZE":"LARGE","CLASSIFICATION_TYPE":"U","REV_AT_EPOCH":"359","EPHEMERIS_TYPE":"0","COUNTRY_CODE":"US","TLE_LINE1":"1 47655U 21012AM  21263.00002315 -.00026305  00000-0 -17535-2 0  9999"},{"EPOCH":"2021-09-20T00:00:02.000160","PERIOD":"95.593","TIME_SYSTEM":"UTC","APOAPSIS":"548.697","MEAN_MOTION_DOT":"-0.00019100","REF_FRAME":"TEME","FILE":"3120378","LAUNCH_DATE":"2021-02-16","ARG_OF_PERICENTER":"63.5617","CENTER_NAME":"EARTH","ELEMENT_SET_NO":"999","MEAN_MOTION":"15.06391999","MEAN_ELEMENT_THEORY":"SGP4","INCLINATION":"53.0539","ECCENTRICITY":"0.00021070","PERIAPSIS":"545.779","OBJECT_ID":"2021-012AN","RCS_SIZE":"MEDIUM","TLE_LINE2":"2 47656  53.0539 176.5479 0002107  63.5617 146.7960 15.06391999  3606","SITE":"AFETR","SEMIMAJOR_AXIS":"6925.373","BSTAR":"-0.00126700000000","RA_OF_ASC_NODE":"176.5479","OBJECT_NAME":"STARLINK-2040","MEAN_ANOMALY":"146.7960","DECAY_DATE":null,"MEAN_MOTION_DDOT":"0.0000000000000","GP_ID":"185056614","NORAD_CAT_ID":"47656","OBJECT_TYPE":"PAYLOAD","TLE_LINE1":"1 47656U 21012AN  21263.00002315 -.00019100  00000-0 -12670-2 0  9990","COUNTRY_CODE":"US","EPHEMERIS_TYPE":"0","REV_AT_EPOCH":"360","CLASSIFICATION_TYPE":"U"},{"CENTER_NAME":"EARTH","ARG_OF_PERICENTER":"73.6326","ELEMENT_SET_NO":"999","MEAN_MOTION":"15.06410028","MEAN_ELEMENT_THEORY":"SGP4","INCLINATION":"53.0538","ECCENTRICITY":"0.00020860","EPOCH":"2021-09-20T00:00:02.000160","PERIOD":"95.592","TIME_SYSTEM":"UTC","APOAPSIS":"548.627","MEAN_MOTION_DOT":"-0.00026967","REF_FRAME":"TEME","FILE":"3120378","LAUNCH_DATE":"2021-02-16","TLE_LINE1":"1 47657U 21012AP  21263.00002315 -.00026967  00000-0 -17978-2 0  9996","COUNTRY_CODE":"US","EPHEMERIS_TYPE":"0","REV_AT_EPOCH":"357","CLASSIFICATION_TYPE":"U","OBJECT_ID":"2021-012AP","PERIAPSIS":"545.738","RCS_SIZE":"LARGE","TLE_LINE2":"2 47657  53.0538 196.5663 0002086  73.6326 106.7421 15.06410028  3577","SITE":"AFETR","RA_OF_ASC_NODE":"196.5663","SEMIMAJOR_AXIS":"6925.318","BSTAR":"-0.00179780000000","OBJECT_NAME":"STARLINK-2041","MEAN_ANOMALY":"106.7421","DECAY_DATE":null,"GP_ID":"185056861","MEAN_MOTION_DDOT":"0.0000000000000","NORAD_CAT_ID":"47657","OBJECT_TYPE":"PAYLOAD"},{"ECCENTRICITY":"0.00018650","INCLINATION":"53.0533","MEAN_ELEMENT_THEORY":"SGP4","MEAN_MOTION":"15.06406083","ELEMENT_SET_NO":"999","ARG_OF_PERICENTER":"69.6994","CENTER_NAME":"EARTH","LAUNCH_DATE":"2021-02-16","FILE":"3120378","REF_FRAME":"TEME","MEAN_MOTION_DOT":"-0.00025708","APOAPSIS":"548.486","TIME_SYSTEM":"UTC","PERIOD":"95.592","EPOCH":"2021-09-20T00:00:02.000160","CLASSIFICATION_TYPE":"U","REV_AT_EPOCH":"356","EPHEMERIS_TYPE":"0","COUNTRY_CODE":"US","TLE_LINE1":"1 47658U 21012AQ  21263.00002315 -.00025708  00000-0 -17129-2 0  9997","NORAD_CAT_ID":"47658","OBJECT_TYPE":"PAYLOAD","GP_ID":"185057111","MEAN_MOTION_DDOT":"0.0000000000000","DECAY_DATE":null,"MEAN_ANOMALY":"150.6816","OBJECT_NAME":"STARLINK-2042","SITE":"AFETR","SEMIMAJOR_AXIS":"6925.330","RA_OF_ASC_NODE":"196.5644","BSTAR":"-0.00171290000000","TLE_LINE2":"2 47658  53.0533 196.5644 0001865  69.6994 150.6816 15.06406083  3563","RCS_SIZE":"LARGE","PERIAPSIS":"545.903","OBJECT_ID":"2021-012AQ"}];
